[{"OBJECT_NAME":"ONEWEB-0034","OBJECT_ID":"2020-020AG","EPOCH":"2025-11-21T07:02:02.929344","MEAN_MOTION":13.11416782,"ECCENTRICITY":0.000167,"INCLINATION":87.8871,"RA_OF_ASC_NODE":62.4528,"ARG_OF_PERICENTER":103.9666,"MEAN_ANOMALY":256.1648,"EPHEMERIS_TYPE":0,"CLASSIFICATION_TYPE":"U","NORAD_CAT_ID":45454,"ELEMENT_SET_NO":999,"REV_AT_EPOCH":27534,"BSTAR":-0.00084715,"MEAN_MOTION_DOT":-2.88e-6,"MEAN_MOTION_DDOT":0},{"OBJECT_NAME":"ONEWEB-0060","OBJECT_ID":"2020-020AH","EPOCH":"2025-11-21T08:10:25.964256","MEAN_MOTION":13.11418623,"ECCENTRICITY":0.000258,"INCLINATION":87.8859,"RA_OF_ASC_NODE":62.4629,"ARG_OF_PERICENTER":120.0233,"MEAN_ANOMALY":240.1151,"EPHEMERIS_TYPE":0,"CLASSIFICATION_TYPE":"U","NORAD_CAT_ID":45455,"ELEMENT_SET_NO":999,"REV_AT_EPOCH":27530,"BSTAR":0.0015449,"MEAN_MOTION_DOT":5.6e-6,"MEAN_MOTION_DDOT":0},{"OBJECT_NAME":"ONEWEB-0086","OBJECT_ID":"2020-020AJ","EPOCH":"2025-11-21T07:39:54.616032","MEAN_MOTION":13.11417676,"ECCENTRICITY":0.0002434,"INCLINATION":87.8872,"RA_OF_ASC_NODE":62.4445,"ARG_OF_PERICENTER":102.4937,"MEAN_ANOMALY":257.6464,"EPHEMERIS_TYPE":0,"CLASSIFICATION_TYPE":"U","NORAD_CAT_ID":45456,"ELEMENT_SET_NO":999,"REV_AT_EPOCH":27536,"BSTAR":-0.00039009,"MEAN_MOTION_DOT":-1.26e-6,"MEAN_MOTION_DDOT":0},{"OBJECT_NAME":"ONEWEB-0088","OBJECT_ID":"2020-020AK","EPOCH":"2025-11-21T07:08:08.901600","MEAN_MOTION":13.11415927,"ECCENTRICITY":0.0001554,"INCLINATION":87.8883,"RA_OF_ASC_NODE":62.4018,"ARG_OF_PERICENTER":106.8179,"MEAN_ANOMALY":253.3119,"EPHEMERIS_TYPE":0,"CLASSIFICATION_TYPE":"U","NORAD_CAT_ID":45457,"ELEMENT_SET_NO":999,"REV_AT_EPOCH":27529,"BSTAR":-0.0014914,"MEAN_MOTION_DOT":-5.16e-6,"MEAN_MOTION_DDOT":0},{"OBJECT_NAME":"ONEWEB-0102","OBJECT_ID":"2020-100A","EPOCH":"2025-11-21T05:39:53.868096","MEAN_MOTION":13.12443477,"ECCENTRICITY":0.0001821,"INCLINATION":87.896,"RA_OF_ASC_NODE":31.9989,"ARG_OF_PERICENTER":94.9324,"MEAN_ANOMALY":265.2012,"EPHEMERIS_TYPE":0,"CLASSIFICATION_TYPE":"U","NORAD_CAT_ID":47258,"ELEMENT_SET_NO":999,"REV_AT_EPOCH":23745,"BSTAR":9.95e-6,"MEAN_MOTION_DOT":1.6e-7,"MEAN_MOTION_DDOT":0},{"OBJECT_NAME":"ONEWEB-0109","OBJECT_ID":"2020-100B","EPOCH":"2025-11-21T13:10:42.125088","MEAN_MOTION":13.12442936,"ECCENTRICITY":0.0001821,"INCLINATION":87.8963,"RA_OF_ASC_NODE":31.9038,"ARG_OF_PERICENTER":97.91,"MEAN_ANOMALY":262.2236,"EPHEMERIS_TYPE":0,"CLASSIFICATION_TYPE":"U","NORAD_CAT_ID":47259,"ELEMENT_SET_NO":999,"REV_AT_EPOCH":23732,"BSTAR":0.00034982,"MEAN_MOTION_DOT":1.39e-6,"MEAN_MOTION_DDOT":0},{"OBJECT_NAME":"ONEWEB-0110","OBJECT_ID":"2020-100C","EPOCH":"2025-11-21T13:48:03.904416","MEAN_MOTION":13.12441875,"ECCENTRICITY":0.0002072,"INCLINATION":87.8967,"RA_OF_ASC_NODE":31.8828,"ARG_OF_PERICENTER":102.3212,"MEAN_ANOMALY":257.8148,"EPHEMERIS_TYPE":0,"CLASSIFICATION_TYPE":"U","NORAD_CAT_ID":47260,"ELEMENT_SET_NO":999,"REV_AT_EPOCH":23749,"BSTAR":0.00090695,"MEAN_MOTION_DOT":3.39e-6,"MEAN_MOTION_DDOT":0},{"OBJECT_NAME":"ONEWEB-0111","OBJECT_ID":"2020-100D","EPOCH":"2025-11-21T05:23:32.224128","MEAN_MOTION":13.12442284,"ECCENTRICITY":0.0001816,"INCLINATION":87.8966,"RA_OF_ASC_NODE":31.9701,"ARG_OF_PERICENTER":99.3962,"MEAN_ANOMALY":260.7372,"EPHEMERIS_TYPE":0,"CLASSIFICATION_TYPE":"U","NORAD_CAT_ID":47261,"ELEMENT_SET_NO":999,"REV_AT_EPOCH":23728,"BSTAR":-0.00094142,"MEAN_MOTION_DOT":-3.26e-6,"MEAN_MOTION_DDOT":0},{"OBJECT_NAME":"ONEWEB-0114","OBJECT_ID":"2020-100E","EPOCH":"2025-11-21T13:27:02.881728","MEAN_MOTION":13.12443151,"ECCENTRICITY":0.0001707,"INCLINATION":87.8964,"RA_OF_ASC_NODE":31.8978,"ARG_OF_PERICENTER":90.9932,"MEAN_ANOMALY":269.1392,"EPHEMERIS_TYPE":0,"CLASSIFICATION_TYPE":"U","NORAD_CAT_ID":47262,"ELEMENT_SET_NO":999,"REV_AT_EPOCH":23728,"BSTAR":0.00097566,"MEAN_MOTION_DOT":3.64e-6,"MEAN_MOTION_DDOT":0},{"OBJECT_NAME":"ONEWEB-0117","OBJECT_ID":"2020-100F","EPOCH":"2025-11-21T13:15:22.741920","MEAN_MOTION":13.12442845,"ECCENTRICITY":0.0001766,"INCLINATION":87.8961,"RA_OF_ASC_NODE":31.8967,"ARG_OF_PERICENTER":99.534,"MEAN_ANOMALY":260.5988,"EPHEMERIS_TYPE":0,"CLASSIFICATION_TYPE":"U","NORAD_CAT_ID":47263,"ELEMENT_SET_NO":999,"REV_AT_EPOCH":23729,"BSTAR":0.00063089,"MEAN_MOTION_DOT":2.4e-6,"MEAN_MOTION_DDOT":0},{"OBJECT_NAME":"ONEWEB-0118","OBJECT_ID":"2020-100G","EPOCH":"2025-11-21T14:02:04.955712","MEAN_MOTION":13.12442286,"ECCENTRICITY":0.0001447,"INCLINATION":87.8967,"RA_OF_ASC_NODE":31.89,"ARG_OF_PERICENTER":97.056,"MEAN_ANOMALY":263.0733,"EPHEMERIS_TYPE":0,"CLASSIFICATION_TYPE":"U","NORAD_CAT_ID":47264,"ELEMENT_SET_NO":999,"REV_AT_EPOCH":23749,"BSTAR":0.0002377,"MEAN_MOTION_DOT":9.8e-7,"MEAN_MOTION_DDOT":0},{"OBJECT_NAME":"ONEWEB-0119","OBJECT_ID":"2020-100H","EPOCH":"2025-11-21T05:32:52.859040","MEAN_MOTION":13.12443072,"ECCENTRICITY":0.0001836,"INCLINATION":87.896,"RA_OF_ASC_NODE":31.9966,"ARG_OF_PERICENTER":99.4267,"MEAN_ANOMALY":260.707,"EPHEMERIS_TYPE":0,"CLASSIFICATION_TYPE":"U","NORAD_CAT_ID":47265,"ELEMENT_SET_NO":999,"REV_AT_EPOCH":23742,"BSTAR":-0.00051825,"MEAN_MOTION_DOT":-1.74e-6,"MEAN_MOTION_DDOT":0},{"OBJECT_NAME":"ONEWEB-0120","OBJECT_ID":"2020-100J","EPOCH":"2025-11-21T13:24:54.834336","MEAN_MOTION":13.12446752,"ECCENTRICITY":0.0001424,"INCLINATION":87.8967,"RA_OF_ASC_NODE":31.9321,"ARG_OF_PERICENTER":99.3155,"MEAN_ANOMALY":260.8134,"EPHEMERIS_TYPE":0,"CLASSIFICATION_TYPE":"U","NORAD_CAT_ID":47266,"ELEMENT_SET_NO":999,"REV_AT_EPOCH":23749,"BSTAR":0.0035942,"MEAN_MOTION_DOT":1.306e-5,"MEAN_MOTION_DDOT":0},{"OBJECT_NAME":"ONEWEB-0121","OBJECT_ID":"2020-100K","EPOCH":"2025-11-21T13:08:21.999840","MEAN_MOTION":13.12444387,"ECCENTRICITY":0.0001956,"INCLINATION":87.8964,"RA_OF_ASC_NODE":31.9017,"ARG_OF_PERICENTER":102.9861,"MEAN_ANOMALY":257.1486,"EPHEMERIS_TYPE":0,"CLASSIFICATION_TYPE":"U","NORAD_CAT_ID":47267,"ELEMENT_SET_NO":999,"REV_AT_EPOCH":23740,"BSTAR":0.00039456,"MEAN_MOTION_DOT":1.55e-6,"MEAN_MOTION_DDOT":0},{"OBJECT_NAME":"ONEWEB-0122","OBJECT_ID":"2020-100L","EPOCH":"2025-11-21T05:42:02.140128","MEAN_MOTION":13.12443382,"ECCENTRICITY":0.0001907,"INCLINATION":87.8964,"RA_OF_ASC_NODE":31.966,"ARG_OF_PERICENTER":96.8346,"MEAN_ANOMALY":263.2999,"EPHEMERIS_TYPE":0,"CLASSIFICATION_TYPE":"U","NORAD_CAT_ID":47268,"ELEMENT_SET_NO":999,"REV_AT_EPOCH":23727,"BSTAR":-7.5663e-5,"MEAN_MOTION_DOT":-1.5e-7,"MEAN_MOTION_DDOT":0},{"OBJECT_NAME":"ONEWEB-0123","OBJECT_ID":"2020-100M","EPOCH":"2025-11-21T05:35:13.088832","MEAN_MOTION":13.12442707,"ECCENTRICITY":0.0001706,"INCLINATION":87.8964,"RA_OF_ASC_NODE":31.9945,"ARG_OF_PERICENTER":101.71,"MEAN_ANOMALY":258.422,"EPHEMERIS_TYPE":0,"CLASSIFICATION_TYPE":"U","NORAD_CAT_ID":47269,"ELEMENT_SET_NO":999,"REV_AT_EPOCH":23741,"BSTAR":-0.00035229,"MEAN_MOTION_DOT":-1.14e-6,"MEAN_MOTION_DDOT":0},{"OBJECT_NAME":"ONEWEB-0124","OBJECT_ID":"2020-100N","EPOCH":"2025-11-21T05:18:51.766272","MEAN_MOTION":13.12442163,"ECCENTRICITY":0.0001821,"INCLINATION":87.8965,"RA_OF_ASC_NODE":32.0014,"ARG_OF_PERICENTER":106.0382,"MEAN_ANOMALY":254.0947,"EPHEMERIS_TYPE":0,"CLASSIFICATION_TYPE":"U","NORAD_CAT_ID":47270,"ELEMENT_SET_NO":999,"REV_AT_EPOCH":23729,"BSTAR":-0.00097029,"MEAN_MOTION_DOT":-3.36e-6,"MEAN_MOTION_DDOT":0}]
