ONEWEB-0034             
1 45454U 20020AG  25325.29308946 -.00000288  00000+0 -84715-3 0  9991
2 45454  87.8871  62.4528 0001670 103.9666 256.1648 13.11416782275342
ONEWEB-0060             
1 45455U 20020AH  25325.34057829  .00000560  00000+0  15449-2 0  9997
2 45455  87.8859  62.4629 0002580 120.0233 240.1151 13.11418623275306
ONEWEB-0086             
1 45456U 20020AJ  25325.31938213 -.00000126  00000+0 -39009-3 0  9999
2 45456  87.8872  62.4445 0002434 102.4937 257.6464 13.11417676275364
ONEWEB-0088             
1 45457U 20020AK  25325.29732525 -.00000516  00000+0 -14914-2 0  9995
2 45457  87.8883  62.4018 0001554 106.8179 253.3119 13.11415927275290
ONEWEB-0102             
1 47258U 20100A   25325.23604014  .00000016  00000+0  99500-5 0  9990
2 47258  87.8960  31.9989 0001821  94.9324 265.2012 13.12443477237453
ONEWEB-0109             
1 47259U 20100B   25325.54909867  .00000139  00000+0  34982-3 0  9996
2 47259  87.8963  31.9038 0001821  97.9100 262.2236 13.12442936237327
ONEWEB-0110             
1 47260U 20100C   25325.57504519  .00000339  00000+0  90695-3 0  9991
2 47260  87.8967  31.8828 0002072 102.3212 257.8148 13.12441875237494
ONEWEB-0111             
1 47261U 20100D   25325.22467852 -.00000326  00000+0 -94142-3 0  9991
2 47261  87.8966  31.9701 0001816  99.3962 260.7372 13.12442284237281
ONEWEB-0114             
1 47262U 20100E   25325.56045002  .00000364  00000+0  97566-3 0  9991
2 47262  87.8964  31.8978 0001707  90.9932 269.1392 13.12443151237287
ONEWEB-0117             
1 47263U 20100F   25325.55234655  .00000240  00000+0  63089-3 0  9991
2 47263  87.8961  31.8967 0001766  99.5340 260.5988 13.12442845237292
ONEWEB-0118             
1 47264U 20100G   25325.58477958  .00000098  00000+0  23770-3 0  9994
2 47264  87.8967  31.8900 0001447  97.0560 263.0733 13.12442286237496
ONEWEB-0119             
1 47265U 20100H   25325.23116735 -.00000174  00000+0 -51825-3 0  9999
2 47265  87.8960  31.9966 0001836  99.4267 260.7070 13.12443072237420
ONEWEB-0120             
1 47266U 20100J   25325.55896799  .00001306  00000+0  35942-2 0  9997
2 47266  87.8967  31.9321 0001424  99.3155 260.8134 13.12446752237498
ONEWEB-0121             
1 47267U 20100K   25325.54747685  .00000155  00000+0  39456-3 0  9992
2 47267  87.8964  31.9017 0001956 102.9861 257.1486 13.12444387237405
ONEWEB-0122             
1 47268U 20100L   25325.23752477 -.00000015  00000+0 -75663-4 0  9992
2 47268  87.8964  31.9660 0001907  96.8346 263.2999 13.12443382237271
ONEWEB-0123             
1 47269U 20100M   25325.23279038 -.00000114  00000+0 -35229-3 0  9993
2 47269  87.8964  31.9945 0001706 101.7100 258.4220 13.12442707237418
ONEWEB-0124             
1 47270U 20100N   25325.22143248 -.00000336  00000+0 -97029-3 0  9999
2 47270  87.8965  32.0014 0001821 106.0382 254.0947 13.12442163237298
